{
  "type": "FeatureCollection",
  "features": [
    {
      "type": "Feature",
      "properties": {
        "norad_id": 39160,
        "name": "VNREDSAT 1",
        "group": "resource",
        "lat": 53.507569956608656,
        "lon": -129.77617144255552,
        "alt_km": 671.6817287541289,
        "timestamp": "2025-12-09T23:33:23.506184+00:00",
        "meta_object_name": "VNREDSAT 1",
        "meta_object_id": "2013-021B",
        "meta_epoch": "2025-12-09T14:47:18.360672",
        "meta_mean_motion": 14.64917007,
        "meta_eccentricity": 0.00013319,
        "meta_inclination": 97.9372,
        "meta_ra_of_asc_node": 39.0004,
        "meta_arg_of_pericenter": 78.7949,
        "meta_mean_anomaly": 281.3405,
        "meta_ephemeris_type": 0,
        "meta_classification_type": "U",
        "meta_norad_cat_id": 39160,
        "meta_element_set_no": 999,
        "meta_rev_at_epoch": 67253,
        "meta_bstar": 0.000272299,
        "meta_mean_motion_dot": 1.411e-05,
        "meta_mean_motion_ddot": 0,
        "tle_line1": "1 39160U 13021B   25343.61618473  .00001411  00000+0  27230-3 0  9992",
        "tle_line2": "2 39160  97.9372  39.0004 0001331  78.7949 281.3405 14.64917007672531"
      },
      "geometry": {
        "type": "Point",
        "coordinates": [
          -129.77617144255552,
          53.507569956608656
        ]
      }
    },
    {
      "type": "Feature",
      "properties": {
        "norad_id": 39227,
        "name": "ARIRANG-5 (KOMPSAT-5)",
        "group": "resource",
        "lat": 8.063370332487638,
        "lon": -10.588728782468676,
        "alt_km": 555.9412402022435,
        "timestamp": "2025-12-09T23:33:23.506194+00:00",
        "meta_object_name": "ARIRANG-5 (KOMPSAT-5)",
        "meta_object_id": "2013-042A",
        "meta_epoch": "2025-12-09T14:48:53.143200",
        "meta_mean_motion": 15.04483003,
        "meta_eccentricity": 0.00039064,
        "meta_inclination": 97.6143,
        "meta_ra_of_asc_node": 167.9665,
        "meta_arg_of_pericenter": 63.55,
        "meta_mean_anomaly": 296.6127,
        "meta_ephemeris_type": 0,
        "meta_classification_type": "U",
        "meta_norad_cat_id": 39227,
        "meta_element_set_no": 999,
        "meta_rev_at_epoch": 67535,
        "meta_bstar": 0.00010509689,
        "meta_mean_motion_dot": 1.41e-05,
        "meta_mean_motion_ddot": 0,
        "tle_line1": "1 39227U 13042A   25343.61728175  .00001410  00000+0  10510-3 0  9992",
        "tle_line2": "2 39227  97.6143 167.9665 0003906  63.5500 296.6127 15.04483003675359"
      },
      "geometry": {
        "type": "Point",
        "coordinates": [
          -10.588728782468676,
          8.063370332487638
        ]
      }
    },
    {
      "type": "Feature",
      "properties": {
        "norad_id": 39418,
        "name": "SKYSAT-A",
        "group": "resource",
        "lat": 64.5935000658626,
        "lon": -129.82166264736102,
        "alt_km": 534.8253063008015,
        "timestamp": "2025-12-09T23:33:23.506205+00:00",
        "meta_object_name": "SKYSAT-A",
        "meta_object_id": "2013-066C",
        "meta_epoch": "2025-12-09T13:31:05.608704",
        "meta_mean_motion": 15.11566359,
        "meta_eccentricity": 0.0020703,
        "meta_inclination": 97.4109,
        "meta_ra_of_asc_node": 33.8681,
        "meta_arg_of_pericenter": 248.505,
        "meta_mean_anomaly": 111.3974,
        "meta_ephemeris_type": 0,
        "meta_classification_type": "U",
        "meta_norad_cat_id": 39418,
        "meta_element_set_no": 999,
        "meta_rev_at_epoch": 65982,
        "meta_bstar": 0.0003728932,
        "meta_mean_motion_dot": 6.295e-05,
        "meta_mean_motion_ddot": 0,
        "tle_line1": "1 39418U 13066C   25343.56325936  .00006295  00000+0  37289-3 0  9990",
        "tle_line2": "2 39418  97.4109  33.8681 0020703 248.5050 111.3974 15.11566359659820"
      },
      "geometry": {
        "type": "Point",
        "coordinates": [
          -129.82166264736102,
          64.5935000658626
        ]
      }
    },
    {
      "type": "Feature",
      "properties": {
        "norad_id": 39419,
        "name": "DUBAISAT-2",
        "group": "resource",
        "lat": -69.96840664159832,
        "lon": -4.508624061562636,
        "alt_km": 543.0438271761668,
        "timestamp": "2025-12-09T23:33:23.506215+00:00",
        "meta_object_name": "DUBAISAT-2",
        "meta_object_id": "2013-066D",
        "meta_epoch": "2025-12-09T14:19:07.204224",
        "meta_mean_motion": 15.08306086,
        "meta_eccentricity": 0.00109864,
        "meta_inclination": 97.4449,
        "meta_ra_of_asc_node": 334.1006,
        "meta_arg_of_pericenter": 332.4224,
        "meta_mean_anomaly": 27.6421,
        "meta_ephemeris_type": 0,
        "meta_classification_type": "U",
        "meta_norad_cat_id": 39419,
        "meta_element_set_no": 999,
        "meta_rev_at_epoch": 65779,
        "meta_bstar": 0.00040352325,
        "meta_mean_motion_dot": 6.208e-05,
        "meta_mean_motion_ddot": 0,
        "tle_line1": "1 39419U 13066D   25343.59661116  .00006208  00000+0  40352-3 0  9996",
        "tle_line2": "2 39419  97.4449 334.1006 0010986 332.4224  27.6421 15.08306086657799"
      },
      "geometry": {
        "type": "Point",
        "coordinates": [
          -4.508624061562636,
          -69.96840664159832
        ]
      }
    },
    {
      "type": "Feature",
      "properties": {
        "norad_id": 39574,
        "name": "GPM-CORE",
        "group": "resource",
        "lat": 48.16600051761298,
        "lon": -106.62058373175002,
        "alt_km": 430.6244343984863,
        "timestamp": "2025-12-09T23:33:23.506225+00:00",
        "meta_object_name": "GPM-CORE",
        "meta_object_id": "2014-009C",
        "meta_epoch": "2025-12-09T15:33:09.299520",
        "meta_mean_motion": 15.45450971,
        "meta_eccentricity": 0.00105182,
        "meta_inclination": 64.9737,
        "meta_ra_of_asc_node": 223.0367,
        "meta_arg_of_pericenter": 270.0076,
        "meta_mean_anomaly": 89.986,
        "meta_ephemeris_type": 0,
        "meta_classification_type": "U",
        "meta_norad_cat_id": 39574,
        "meta_element_set_no": 999,
        "meta_rev_at_epoch": 66853,
        "meta_bstar": 0.00039419675,
        "meta_mean_motion_dot": 0.00018814,
        "meta_mean_motion_ddot": 0,
        "tle_line1": "1 39574U 14009C   25343.64802430  .00018814  00000+0  39420-3 0  9998",
        "tle_line2": "2 39574  64.9737 223.0367 0010518 270.0076  89.9860 15.45450971668535"
      },
      "geometry": {
        "type": "Point",
        "coordinates": [
          -106.62058373175002,
          48.16600051761298
        ]
      }
    },
    {
      "type": "Feature",
      "properties": {
        "norad_id": 39634,
        "name": "SENTINEL-1A",
        "group": "resource",
        "lat": 42.669044751514626,
        "lon": -18.35602677674803,
        "alt_km": 691.5580077710565,
        "timestamp": "2025-12-09T23:33:23.506236+00:00",
        "meta_object_name": "SENTINEL-1A",
        "meta_object_id": "2014-016A",
        "meta_epoch": "2025-12-09T15:07:50.214720",
        "meta_mean_motion": 14.59200602,
        "meta_eccentricity": 0.00012507,
        "meta_inclination": 98.18,
        "meta_ra_of_asc_node": 348.9173,
        "meta_arg_of_pericenter": 83.6974,
        "meta_mean_anomaly": 276.4368,
        "meta_ephemeris_type": 0,
        "meta_classification_type": "U",
        "meta_norad_cat_id": 39634,
        "meta_element_set_no": 999,
        "meta_rev_at_epoch": 62237,
        "meta_bstar": 5.974094e-05,
        "meta_mean_motion_dot": 2.36e-06,
        "meta_mean_motion_ddot": 0,
        "tle_line1": "1 39634U 14016A   25343.63044230  .00000236  00000+0  59741-4 0  9996",
        "tle_line2": "2 39634  98.1800 348.9173 0001250  83.6974 276.4368 14.59200602622378"
      },
      "geometry": {
        "type": "Point",
        "coordinates": [
          -18.35602677674803,
          42.669044751514626
        ]
      }
    },
    {
      "type": "Feature",
      "properties": {
        "norad_id": 39731,
        "name": "KAZEOSAT 1",
        "group": "resource",
        "lat": -7.776781708964517,
        "lon": -125.19776131147819,
        "alt_km": 755.6791789657782,
        "timestamp": "2025-12-09T23:33:23.506246+00:00",
        "meta_object_name": "KAZEOSAT 1",
        "meta_object_id": "2014-024A",
        "meta_epoch": "2025-12-09T14:21:44.992224",
        "meta_mean_motion": 14.42060759,
        "meta_eccentricity": 0.00010889,
        "meta_inclination": 98.3434,
        "meta_ra_of_asc_node": 55.5762,
        "meta_arg_of_pericenter": 93.6424,
        "meta_mean_anomaly": 266.489,
        "meta_ephemeris_type": 0,
        "meta_classification_type": "U",
        "meta_norad_cat_id": 39731,
        "meta_element_set_no": 999,
        "meta_rev_at_epoch": 61123,
        "meta_bstar": 0.00021180612,
        "meta_mean_motion_dot": 6.53e-06,
        "meta_mean_motion_ddot": 0,
        "tle_line1": "1 39731U 14024A   25343.59843741  .00000653  00000+0  21181-3 0  9991",
        "tle_line2": "2 39731  98.3434  55.5762 0001088  93.6424 266.4890 14.42060759611237"
      },
      "geometry": {
        "type": "Point",
        "coordinates": [
          -125.19776131147819,
          -7.776781708964517
        ]
      }
    }
  ]
}